ONEWEB-0029             
1 45445U 20020X   25095.07607016 -.00000125  00000+0 -38928-3 0  9996
2 45445  87.8796 108.3953 0002181  89.9110 270.2268 13.11419839245242
ONEWEB-0068             
1 45446U 20020Y   25095.74395779 -.00000403  00000+0 -11722-2 0  9992
2 45446  87.8795 108.2501 0002134  88.9950 271.1422 13.11415262245270
ONEWEB-0046             
1 45447U 20020Z   25095.04894472 -.00000129  00000+0 -39948-3 0  9996
2 45447  87.8794 108.3986 0002217  97.3971 262.7409 13.11413795245198
ONEWEB-0063             
1 45448U 20020AA  25095.76444183 -.00000261  00000+0 -77187-3 0  9990
2 45448  87.8795 108.2541 0002030  99.0829 261.0529 13.11417215245365
ONEWEB-0019             
1 45449U 20020AB  25095.73900007 -.00000203  00000+0 -60813-3 0  9994
2 45449  87.8796 108.2742 0001687  88.9826 271.1495 13.11417439245217
ONEWEB-0094             
1 45450U 20020AC  25095.73705150  .00000049  00000+0  92595-4 0  9997
2 45450  87.9004  92.9622 0002082  89.6406 270.4964 13.17646882248702
ONEWEB-0087             
1 45451U 20020AD  25095.54558777  .00000242  00000+0  64627-3 0  9997
2 45451  87.8791 108.2551 0002260  89.3305 270.8082 13.11419817245230
ONEWEB-0082             
1 45452U 20020AE  25095.08455559  .00000206  00000+0  54532-3 0  9995
2 45452  87.8797 108.3654 0002048  86.2301 273.9061 13.11418955245264
ONEWEB-0050             
1 45453U 20020AF  25095.55484420  .00006102  00000+0  56479-3 0  9990
2 45453  87.9985 313.8630 0005038  97.7093 262.4710 14.94381163275213
ONEWEB-0034             
1 45454U 20020AG  25095.56438287  .00000448  00000+0  12276-2 0  9995
2 45454  87.8794 108.2893 0001990  91.0644 269.0711 13.11415104245245
ONEWEB-0060             
1 45455U 20020AH  25095.53059573 -.00000363  00000+0 -10613-2 0  9991
2 45455  87.8798 108.3207 0002003  96.3270 263.8086 13.11419312245195
ONEWEB-0086             
1 45456U 20020AJ  25095.74240008 -.00000369  00000+0 -10776-2 0  9996
2 45456  87.8793 108.2528 0002347  87.5508 272.5889 13.11415028245270
ONEWEB-0088             
1 45457U 20020AK  25095.56776527  .00000472  00000+0  12947-2 0  9992
2 45457  87.8788 108.2403 0002138  92.6813 267.4559 13.11415872245196
ONEWEB-0102             
1 47258U 20100A   25095.38097021  .00000154  00000+0  39320-3 0  9999
2 47258  87.8821  77.8009 0001780  85.4825 274.6507 13.12441222207306
ONEWEB-0109             
1 47259U 20100B   25094.70296105  .00000399  00000+0  10739-2 0  9992
2 47259  87.8822  77.9045 0001819  84.6610 275.4726 13.12443571207047
ONEWEB-0110             
1 47260U 20100C   25095.49128255  .00000137  00000+0  34547-3 0  9995
2 47260  87.8818  77.7353 0001870  82.7785 277.3556 13.12441821207311
ONEWEB-0111             
1 47261U 20100D   25095.90327738 -.00000271  00000+0 -78749-3 0  9992
2 47261  87.8822  77.6639 0001860  85.8608 274.2733 13.12445170207202
ONEWEB-0114             
1 47262U 20100E   25095.85787631  .00000380  00000+0  10222-2 0  9999
2 47262  87.8819  77.6763 0001602  89.1203 271.0109 13.12441866207153
ONEWEB-0117             
1 47263U 20100F   25095.23986403  .00000397  00000+0  10689-2 0  9995
2 47263  87.8823  77.7877 0001947  85.2918 274.8433 13.12442781207088
ONEWEB-0118             
1 47264U 20100G   25095.88219780 -.00000181  00000+0 -53822-3 0  9994
2 47264  87.8824  77.6612 0001789  96.1813 263.9520 13.12442250207363
ONEWEB-0119             
1 47265U 20100H   25095.68106383 -.00000116  00000+0 -35729-3 0  9991
2 47265  87.8823  77.7403 0001904  84.6774 275.4572 13.12443246207315
ONEWEB-0120             
1 47266U 20100J   25095.85639893  .00000395  00000+0  10632-2 0  9990
2 47266  87.8826  77.6991 0001800  87.7020 272.4314 13.12443284207361
ONEWEB-0121             
1 47267U 20100K   25094.70132450  .00000480  00000+0  12989-2 0  9993
2 47267  87.8815  77.9055 0001876  83.0685 277.0656 13.12444894207125
ONEWEB-0122             
1 47268U 20100L   25095.45870162  .00000169  00000+0  43308-3 0  9990
2 47268  87.8819  77.7592 0001851  81.6055 278.5283 13.12444263207135
ONEWEB-0123             
1 47269U 20100M   25094.99655279  .00000048  00000+0  98004-4 0  9999
2 47269  87.8822  77.8756 0001910  88.5569 271.5778 13.12443958207216
ONEWEB-0124             
1 47270U 20100N   25095.44261243 -.00000318  00000+0 -91952-3 0  9992
2 47270  87.8823  77.7843 0002158  85.1253 275.0122 13.12444630207156
ONEWEB-0125             
1 47271U 20100P   25095.87733628 -.00000019  00000+0 -87818-4 0  9996
2 47271  87.8824  77.6597 0002156  91.9232 268.2144 13.12441281207273
ONEWEB-0126             
1 47272U 20100Q   25095.90246963 -.00000299  00000+0 -86556-3 0  9999
2 47272  87.8843  77.6537 0001815  86.9332 273.2004 13.12442406207344
ONEWEB-0127             
1 47273U 20100R   25095.17822085  .00000323  00000+0  86362-3 0  9995
2 47273  87.8823  77.8325 0001773  84.9278 275.2053 13.12443619207275
ONEWEB-0128             
1 47274U 20100S   25095.20092670 -.00000405  00000+0 -11611-2 0  9996
2 47274  87.8832  77.8488 0001908  78.8291 281.3052 13.12443398207296
ONEWEB-0129             
1 47275U 20100T   25095.86598155  .00000320  00000+0  85498-3 0  9997
2 47275  87.8824  77.6651 0000714  99.6215 260.4994 13.12440874207311
ONEWEB-0130             
1 47276U 20100U   25095.20741287 -.00000370  00000+0 -10640-2 0  9995
2 47276  87.8822  77.7992 0001882  82.7567 277.3776 13.12443366207199
ONEWEB-0131             
1 47277U 20100V   25095.50911773 -.00000291  00000+0 -84516-3 0  9994
2 47277  87.8824  77.7622 0001967  83.0154 277.1198 13.12443413207270
ONEWEB-0132             
1 47278U 20100W   25094.69971698  .00000423  00000+0  11396-2 0  9996
2 47278  87.8824  77.9256 0002147  86.1835 273.9539 13.12443786207060
ONEWEB-0133             
1 47279U 20100X   25095.70702471  .00000388  00000+0  10439-2 0  9998
2 47279  87.8819  77.7066 0001974  82.2318 277.9035 13.12442534207359
ONEWEB-0134             
1 47280U 20100Y   25095.90490225 -.00000237  00000+0 -69471-3 0  9999
2 47280  87.8817  77.6517 0001776  78.8226 281.3102 13.12444253207352
ONEWEB-0135             
1 47281U 20100Z   25095.41828394  .00000074  00000+0  17030-3 0  9999
2 47281  87.8824  77.7816 0001845  70.9500 289.1828 13.12439939207311
ONEWEB-0136             
1 47282U 20100AA  25095.89517226 -.00000370  00000+0 -10653-2 0  9995
2 47282  87.8823  77.6533 0001555  74.7076 285.4224 13.12442251207303
ONEWEB-0137             
1 47283U 20100AB  25095.24310672  .00000473  00000+0  12793-2 0  9990
2 47283  87.8817  77.7949 0001833  91.8491 268.2847 13.12443620207120
ONEWEB-0138             
1 47284U 20100AC  25095.45072988 -.00000110  00000+0 -34134-3 0  9993
2 47284  87.8818  77.7651 0001826  84.8246 275.3091 13.12443578207238
ONEWEB-0139             
1 47285U 20100AD  25095.87099454  .00000164  00000+0  42166-3 0  9998
2 47285  87.8825  77.6678 0001920  85.7317 274.4031 13.12442624207368
ONEWEB-0140             
1 47286U 20100AE  25095.67294872 -.00000321  00000+0 -92907-3 0  9993
2 47286  87.8819  77.6973 0001857  82.8326 277.3013 13.12443724207293
ONEWEB-0141             
1 47287U 20100AF  25094.65090839  .00000077  00000+0  17906-3 0  9990
2 47287  87.8818  77.9179 0001822  97.3774 262.7562 13.12442103207156
ONEWEB-0142             
1 47288U 20100AG  25095.25002315  .00195730  00000+0  53472+0 0  9995
2 47288  87.8826  77.7895 0001793  91.9576 268.7133 13.12169682207222
ONEWEB-0143             
1 47289U 20100AH  25095.18308941  .00000196  00000+0  51037-3 0  9992
2 47289  87.8819  77.8158 0001898  86.0796 274.0549 13.12441148207190
ONEWEB-0144             
1 47290U 20100AJ  25095.46046008  .00000187  00000+0  48536-3 0  9998
2 47290  87.8821  77.7422 0001620  87.2910 272.8404 13.12444179207151
ONEWEB-0145             
1 47291U 20100AK  25095.20254267 -.00000364  00000+0 -10473-2 0  9996
2 47291  87.8821  77.8192 0001824  86.0065 274.1272 13.12440567207314
ONEWEB-0146             
1 47292U 20100AL  25095.19928530 -.00000249  00000+0 -72648-3 0  9991
2 47292  87.8825  77.8059 0002303  83.9743 276.1648 13.12441243207224
ONEWEB-0147             
1 47293U 20100AM  25095.85138578  .00000331  00000+0  88494-3 0  9996
2 47293  87.8820  77.6582 0001798  77.3001 282.8328 13.12442993207200
ONEWEB-0115             
1 48042U 21025A   25095.84015444  .00000279  00000+0  72987-3 0  9992
2 48042  87.8955  47.1328 0001982  80.3672 279.7681 13.13471398196199
ONEWEB-0152             
1 48043U 21025B   25095.39662170  .00000335  00000+0  88232-3 0  9990
2 48043  87.8959  47.2312 0002103  80.0777 280.0590 13.13471023196095
ONEWEB-0153             
1 48044U 21025C   25095.22226982  .00000132  00000+0  32689-3 0  9990
2 48044  87.8961  47.2610 0001881  81.5510 278.5832 13.13471577196065
ONEWEB-0154             
1 48045U 21025D   25095.82829995 -.00000021  00000+0 -93655-4 0  9990
2 48045  87.8959  47.1427 0001922  79.0981 281.0365 13.13472914196109
ONEWEB-0116             
1 48046U 21025E   25095.56253653  .00000095  00000+0  22443-3 0  9999
2 48046  87.8961  47.1727 0002062  78.1876 281.9484 13.13471456196207
ONEWEB-0150             
1 48047U 21025F   25095.15793837  .00000378  00000+0  99911-3 0  9996
2 48047  87.8955  47.2554 0001799  84.5352 275.5982 13.13471132196041
ONEWEB-0107             
1 48048U 21025G   25095.15963750  .00000389  00000+0  10306-2 0  9992
2 48048  87.8955  47.2530 0001550  82.6649 277.4656 13.13470974196029
ONEWEB-0101             
1 48049U 21025H   25095.88415322 -.00000269  00000+0 -77019-3 0  9994
2 48049  87.8963  47.1418 0001827  77.8528 282.2806 13.13472943196098
ONEWEB-0113             
1 48050U 21025J   25095.15971217  .00000312  00000+0  81312-3 0  9994
2 48050  87.8959  47.2577 0001968  82.8887 277.2466 13.13988620196081
ONEWEB-0112             
1 48051U 21025K   25095.85031671  .00000367  00000+0  97025-3 0  9991
2 48051  87.8956  47.1126 0001907  83.0456 277.0890 13.13471750196198
